UNKNOWN                 
1 81599U          25364.45151154  .00000554  00000+0  10892-2 0  9993
2 81599  67.2931 242.6551 0245403  71.3056 106.8181 13.31456993587433
UNKNOWN                 
1 81605U          25355.94871818  .00001814  00000+0  77035-2 0  9993
2 81605  56.4332 187.4802 0178680 142.2063 219.1566 12.81521797187383
UNKNOWN                 
1 81614U          25362.93808459  .00006376  00000+0  41114-1 0  9997
2 81614 101.8208 358.2906 0333303 117.4365 246.1008 12.37272975539987
UNKNOWN                 
1 81615U          25364.50135803  .00001503  00000+0  55971-3 0  9994
2 81615  65.8275  20.7357 0770238 128.3342 238.9540 13.34142964585231
UNKNOWN                 
1 81617U          25364.45009265  .00000473  00000+0  30618-2 0  9997
2 81617 101.2592 178.1294 0039492 209.4071 150.4782 12.57549065555339
UNKNOWN                 
1 81624U          25354.79848584  .00005219  00000+0  83184-3 0  9996
2 81624  66.9768 144.6673 0071346 230.3305 129.1510 14.71055036640891
UNKNOWN                 
1 81640U          25364.67692315  .00000218  00000+0  25541-3 0  9998
2 81640  65.8266  95.2472 0976229  70.3675 299.9962 12.57232374512332
UNKNOWN                 
1 81652U          25355.17970245  .00000611  00000+0  77035-3 0  9999
2 81652 102.1470 245.4139 0368004 340.8161 173.3701 13.44387754579785
UNKNOWN                 
1 81667U          25364.27635684  .00004751  00000+0  12812-2 0  9991
2 81667  74.0414   3.7417 0017873 290.1822  69.7415 14.48073041459183
UNKNOWN                 
1 81674U          25364.31451949  .00001903  00000+0  11188-2 0  9995
2 81674  66.8240 320.0156 0030384 221.0733 289.0483 14.09963993616197
UNKNOWN                 
1 81683U          25364.18517401  .00005411  00000+0  11833-2 0  9991
2 81683  81.2164 276.9746 0022469 245.6030 114.2822 14.57514046638402
UNKNOWN                 
1 81693U          25362.12676584  .00000189  00000+0  16216-2 0  9999
2 81693 101.0922  61.8680 0366723  55.6460 307.8727 12.25914762969654
