CCSDS_OMM_VERS = 2.0
CREATION_DATE  = 
ORIGINATOR     = 

OBJECT_NAME    = UNKNOWN
OBJECT_ID      = 
CENTER_NAME    = EARTH
REF_FRAME      = TEME
TIME_SYSTEM    = UTC
MEAN_ELEMENT_THEORY = SGP/SGP4

EPOCH          = 2025-12-30T10:50:10.597056
MEAN_MOTION    = 13.31456993
ECCENTRICITY   = .0245403
INCLINATION    = 67.2931
RA_OF_ASC_NODE = 242.6551
ARG_OF_PERICENTER = 71.3056
MEAN_ANOMALY   = 106.8181

EPHEMERIS_TYPE = 0
CLASSIFICATION_TYPE = U
NORAD_CAT_ID   = 81599
ELEMENT_SET_NO = 999
REV_AT_EPOCH   = 58743
BSTAR          = .10892E-2
MEAN_MOTION_DOT = .554E-5
MEAN_MOTION_DDOT = 0

CCSDS_OMM_VERS = 2.0
CREATION_DATE  = 
ORIGINATOR     = 

OBJECT_NAME    = UNKNOWN
OBJECT_ID      = 
CENTER_NAME    = EARTH
REF_FRAME      = TEME
TIME_SYSTEM    = UTC
MEAN_ELEMENT_THEORY = SGP/SGP4

EPOCH          = 2025-12-21T22:46:09.250752
MEAN_MOTION    = 12.81521797
ECCENTRICITY   = .017868
INCLINATION    = 56.4332
RA_OF_ASC_NODE = 187.4802
ARG_OF_PERICENTER = 142.2063
MEAN_ANOMALY   = 219.1566

EPHEMERIS_TYPE = 0
CLASSIFICATION_TYPE = U
NORAD_CAT_ID   = 81605
ELEMENT_SET_NO = 999
REV_AT_EPOCH   = 18738
BSTAR          = .77035E-2
MEAN_MOTION_DOT = .1814E-4
MEAN_MOTION_DDOT = 0

CCSDS_OMM_VERS = 2.0
CREATION_DATE  = 
ORIGINATOR     = 

OBJECT_NAME    = UNKNOWN
OBJECT_ID      = 
CENTER_NAME    = EARTH
REF_FRAME      = TEME
TIME_SYSTEM    = UTC
MEAN_ELEMENT_THEORY = SGP/SGP4

EPOCH          = 2025-12-28T22:30:50.508576
MEAN_MOTION    = 12.37272975
ECCENTRICITY   = .0333303
INCLINATION    = 101.8208
RA_OF_ASC_NODE = 358.2906
ARG_OF_PERICENTER = 117.4365
MEAN_ANOMALY   = 246.1008

EPHEMERIS_TYPE = 0
CLASSIFICATION_TYPE = U
NORAD_CAT_ID   = 81614
ELEMENT_SET_NO = 999
REV_AT_EPOCH   = 53998
BSTAR          = .41114E-1
MEAN_MOTION_DOT = .6376E-4
MEAN_MOTION_DDOT = 0

CCSDS_OMM_VERS = 2.0
CREATION_DATE  = 
ORIGINATOR     = 

OBJECT_NAME    = UNKNOWN
OBJECT_ID      = 
CENTER_NAME    = EARTH
REF_FRAME      = TEME
TIME_SYSTEM    = UTC
MEAN_ELEMENT_THEORY = SGP/SGP4

EPOCH          = 2025-12-30T12:01:57.333792
MEAN_MOTION    = 13.34142964
ECCENTRICITY   = .0770238
INCLINATION    = 65.8275
RA_OF_ASC_NODE = 20.7357
ARG_OF_PERICENTER = 128.3342
MEAN_ANOMALY   = 238.9540

EPHEMERIS_TYPE = 0
CLASSIFICATION_TYPE = U
NORAD_CAT_ID   = 81615
ELEMENT_SET_NO = 999
REV_AT_EPOCH   = 58523
BSTAR          = .55971E-3
MEAN_MOTION_DOT = .1503E-4
MEAN_MOTION_DDOT = 0

CCSDS_OMM_VERS = 2.0
CREATION_DATE  = 
ORIGINATOR     = 

OBJECT_NAME    = UNKNOWN
OBJECT_ID      = 
CENTER_NAME    = EARTH
REF_FRAME      = TEME
TIME_SYSTEM    = UTC
MEAN_ELEMENT_THEORY = SGP/SGP4

EPOCH          = 2025-12-30T10:48:08.004960
MEAN_MOTION    = 12.57549065
ECCENTRICITY   = .0039492
INCLINATION    = 101.2592
RA_OF_ASC_NODE = 178.1294
ARG_OF_PERICENTER = 209.4071
MEAN_ANOMALY   = 150.4782

EPHEMERIS_TYPE = 0
CLASSIFICATION_TYPE = U
NORAD_CAT_ID   = 81617
ELEMENT_SET_NO = 999
REV_AT_EPOCH   = 55533
BSTAR          = .30618E-2
MEAN_MOTION_DOT = .473E-5
MEAN_MOTION_DDOT = 0

CCSDS_OMM_VERS = 2.0
CREATION_DATE  = 
ORIGINATOR     = 

OBJECT_NAME    = UNKNOWN
OBJECT_ID      = 
CENTER_NAME    = EARTH
REF_FRAME      = TEME
TIME_SYSTEM    = UTC
MEAN_ELEMENT_THEORY = SGP/SGP4

EPOCH          = 2025-12-20T19:09:49.176576
MEAN_MOTION    = 14.71055036
ECCENTRICITY   = .0071346
INCLINATION    = 66.9768
RA_OF_ASC_NODE = 144.6673
ARG_OF_PERICENTER = 230.3305
MEAN_ANOMALY   = 129.1510

EPHEMERIS_TYPE = 0
CLASSIFICATION_TYPE = U
NORAD_CAT_ID   = 81624
ELEMENT_SET_NO = 999
REV_AT_EPOCH   = 64089
BSTAR          = .83184E-3
MEAN_MOTION_DOT = .5219E-4
MEAN_MOTION_DDOT = 0

CCSDS_OMM_VERS = 2.0
CREATION_DATE  = 
ORIGINATOR     = 

OBJECT_NAME    = UNKNOWN
OBJECT_ID      = 
CENTER_NAME    = EARTH
REF_FRAME      = TEME
TIME_SYSTEM    = UTC
MEAN_ELEMENT_THEORY = SGP/SGP4

EPOCH          = 2025-12-30T16:14:46.160160
MEAN_MOTION    = 12.57232374
ECCENTRICITY   = .0976229
INCLINATION    = 65.8266
RA_OF_ASC_NODE = 95.2472
ARG_OF_PERICENTER = 70.3675
MEAN_ANOMALY   = 299.9962

EPHEMERIS_TYPE = 0
CLASSIFICATION_TYPE = U
NORAD_CAT_ID   = 81640
ELEMENT_SET_NO = 999
REV_AT_EPOCH   = 51233
BSTAR          = .25541E-3
MEAN_MOTION_DOT = .218E-5
MEAN_MOTION_DDOT = 0

CCSDS_OMM_VERS = 2.0
CREATION_DATE  = 
ORIGINATOR     = 

OBJECT_NAME    = UNKNOWN
OBJECT_ID      = 
CENTER_NAME    = EARTH
REF_FRAME      = TEME
TIME_SYSTEM    = UTC
MEAN_ELEMENT_THEORY = SGP/SGP4

EPOCH          = 2025-12-21T04:18:46.291680
MEAN_MOTION    = 13.44387754
ECCENTRICITY   = .0368004
INCLINATION    = 102.1470
RA_OF_ASC_NODE = 245.4139
ARG_OF_PERICENTER = 340.8161
MEAN_ANOMALY   = 173.3701

EPHEMERIS_TYPE = 0
CLASSIFICATION_TYPE = U
NORAD_CAT_ID   = 81652
ELEMENT_SET_NO = 999
REV_AT_EPOCH   = 57978
BSTAR          = .77035E-3
MEAN_MOTION_DOT = .611E-5
MEAN_MOTION_DDOT = 0

CCSDS_OMM_VERS = 2.0
CREATION_DATE  = 
ORIGINATOR     = 

OBJECT_NAME    = UNKNOWN
OBJECT_ID      = 
CENTER_NAME    = EARTH
REF_FRAME      = TEME
TIME_SYSTEM    = UTC
MEAN_ELEMENT_THEORY = SGP/SGP4

EPOCH          = 2025-12-30T06:37:57.230976
MEAN_MOTION    = 14.48073041
ECCENTRICITY   = .0017873
INCLINATION    = 74.0414
RA_OF_ASC_NODE = 3.7417
ARG_OF_PERICENTER = 290.1822
MEAN_ANOMALY   = 69.7415

EPHEMERIS_TYPE = 0
CLASSIFICATION_TYPE = U
NORAD_CAT_ID   = 81667
ELEMENT_SET_NO = 999
REV_AT_EPOCH   = 45918
BSTAR          = .12812E-2
MEAN_MOTION_DOT = .4751E-4
MEAN_MOTION_DDOT = 0

CCSDS_OMM_VERS = 2.0
CREATION_DATE  = 
ORIGINATOR     = 

OBJECT_NAME    = UNKNOWN
OBJECT_ID      = 
CENTER_NAME    = EARTH
REF_FRAME      = TEME
TIME_SYSTEM    = UTC
MEAN_ELEMENT_THEORY = SGP/SGP4

EPOCH          = 2025-12-30T07:32:54.483936
MEAN_MOTION    = 14.09963993
ECCENTRICITY   = .0030384
INCLINATION    = 66.8240
RA_OF_ASC_NODE = 320.0156
ARG_OF_PERICENTER = 221.0733
MEAN_ANOMALY   = 289.0483

EPHEMERIS_TYPE = 0
CLASSIFICATION_TYPE = U
NORAD_CAT_ID   = 81674
ELEMENT_SET_NO = 999
REV_AT_EPOCH   = 61619
BSTAR          = .11188E-2
MEAN_MOTION_DOT = .1903E-4
MEAN_MOTION_DDOT = 0

CCSDS_OMM_VERS = 2.0
CREATION_DATE  = 
ORIGINATOR     = 

OBJECT_NAME    = UNKNOWN
OBJECT_ID      = 
CENTER_NAME    = EARTH
REF_FRAME      = TEME
TIME_SYSTEM    = UTC
MEAN_ELEMENT_THEORY = SGP/SGP4

EPOCH          = 2025-12-30T04:26:39.034464
MEAN_MOTION    = 14.57514046
ECCENTRICITY   = .0022469
INCLINATION    = 81.2164
RA_OF_ASC_NODE = 276.9746
ARG_OF_PERICENTER = 245.6030
MEAN_ANOMALY   = 114.2822

EPHEMERIS_TYPE = 0
CLASSIFICATION_TYPE = U
NORAD_CAT_ID   = 81683
ELEMENT_SET_NO = 999
REV_AT_EPOCH   = 63840
BSTAR          = .11833E-2
MEAN_MOTION_DOT = .5411E-4
MEAN_MOTION_DDOT = 0

CCSDS_OMM_VERS = 2.0
CREATION_DATE  = 
ORIGINATOR     = 

OBJECT_NAME    = UNKNOWN
OBJECT_ID      = 
CENTER_NAME    = EARTH
REF_FRAME      = TEME
TIME_SYSTEM    = UTC
MEAN_ELEMENT_THEORY = SGP/SGP4

EPOCH          = 2025-12-28T03:02:32.568576
MEAN_MOTION    = 12.25914762
ECCENTRICITY   = .0366723
INCLINATION    = 101.0922
RA_OF_ASC_NODE = 61.8680
ARG_OF_PERICENTER = 55.6460
MEAN_ANOMALY   = 307.8727

EPHEMERIS_TYPE = 0
CLASSIFICATION_TYPE = U
NORAD_CAT_ID   = 81693
ELEMENT_SET_NO = 999
REV_AT_EPOCH   = 96965
BSTAR          = .16216E-2
MEAN_MOTION_DOT = .189E-5
MEAN_MOTION_DDOT = 0

